satname,norad_id,inclination_deg,eccentricity,mean_motion_rev_per_day,perigee_km,apogee_km,l1,l2
STARLINK-1008,44714,53.0544,0.0001349,15.06407089,546.2556046699465,548.1240578490206,1 44714U 19074B   25251.38364190  .00001357  00000+0  10998-3 0  9995,2 44714  53.0544 285.0257 0001349  87.2903 272.8240 15.06407089321278
STARLINK-1010,44716,53.0516,0.0011222,15.75420063,335.8931596124721,350.9790582982105,1 44716U 19074D   25251.39465853  .00106341  00000+0  68127-3 0  9992,2 44716  53.0516 240.3002 0011222  11.2839 348.8429 15.75420063321880
STARLINK-1011,44717,53.0517,0.0005586,15.64554779,370.7474782410418,378.29154609643683,1 44717U 19074E   25251.41157947  .00109166  00000+0  11007-2 0  9990,2 44717  53.0517 293.0883 0005586 359.5307   0.5701 15.64554779321164
STARLINK-1012,44718,53.0532,0.000126,15.06408649,546.3124595474756,548.057640704108,1 44718U 19074F   25251.36154560  .00002537  00000+0  18912-3 0  9990,2 44718  53.0532 285.1257 0001260  86.2214 273.8919 15.06408649321262
STARLINK-1015,44721,53.0453,0.0003797,15.92384622,293.07781304623586,298.14585791189893,1 44721U 19074J   25251.58337963  .00216153  28656-4  63260-3 0  9997,2 44721  53.0453 228.6595 0003797   7.6564 294.6606 15.92384622  6057
STARLINK-1017,44723,53.0521,0.000268,15.1039858,533.1308141952659,536.8362467996121,1 44723U 19074L   25251.48235839  .00025738  00000+0  15611-2 0  9998,2 44723  53.0521 283.4161 0002680 325.4312  34.6504 15.10398580321300
STARLINK-1019,44724,53.0544,0.0001322,15.06403504,546.2852890441309,548.1163483633954,1 44724U 19074M   25251.49054429  .00002179  00000+0  16513-3 0  9991,2 44724  53.0544 284.5453 0001322  88.0235 272.0905 15.06403504321288
STARLINK-1020,44725,53.0554,0.0001564,15.0639922,546.1308236386185,548.2970734153178,1 44725U 19074N   25251.42972304 -.00002932  00000+0 -17801-3 0  9996,2 44725  53.0554 304.8179 0001564  94.5471 265.5697 15.06399220320994
STARLINK-1021,44726,53.0444,0.0003984,15.8661029,309.1291183504418,314.459655679615,1 44726U 19074P   25251.58337963  .00256451  00000+0  96342-3 0  9992,2 44726  53.0444 234.0708 0003984 349.4882 240.4390 15.86610290  6041
STARLINK-1029,44734,53.0528,0.0009088,15.81724079,319.4725257899772,331.6571742725946,1 44734U 19074X   25251.58337963  .00278033  00000+0  13116-2 0  9998,2 44734  53.0528 157.4281 0009088  75.7621 261.0404 15.81724079  5992
STARLINK-1030,44735,53.0402,0.0001909,16.05914936,256.8065926889294,259.3402978369313,1 44735U 19074Y   25251.52134830  .00563237  16416-3  75858-3 0  9998,2 44735  53.0402 251.4741 0001909  92.1696  45.8789 16.05914936321905
STARLINK-1031,44736,53.0555,0.0006075,15.35845259,454.2577918743191,462.5641976879788,1 44736U 19074Z   25251.36320997  .00066324  00000+0  18678-2 0  9991,2 44736  53.0555 287.5079 0006075 324.9219  35.1382 15.35845259321246
STARLINK-1036,44741,53.0549,0.0001214,15.06400605,546.368966611205,548.0504407908638,1 44741U 19074AE  25251.45921731 -.00000766  00000+0 -32555-4 0  9992,2 44741  53.0549 304.6870 0001214  85.0931 275.0196 15.06400605321003
STARLINK-1039,44744,53.0541,0.0003773,15.08891436,536.9761172019535,542.196231109172,1 44744U 19074AH  25251.47799351  .00022531  00000+0  14270-2 0  9992,2 44744  53.0541 324.1589 0003773 304.8595  55.2040 15.08891436320735
STARLINK-1042,44747,53.0473,0.0002796,15.40473748,442.8024531820165,446.61778929221236,1 44747U 19074AL  25251.36853151  .00016575  00000+0  41175-3 0  9998,2 44747  53.0473 243.2438 0002796 358.7182   1.3814 15.40473748321886
STARLINK-1043,44748,53.0556,0.0001103,15.06414783,546.4023895944038,547.9301114914733,1 44748U 19074AM  25251.43156577  .00002397  00000+0  17966-3 0  9993,2 44748  53.0556 324.8118 0001103  70.5516 289.5592 15.06414783320722
STARLINK-1046,44751,53.0559,0.0001467,15.06406249,546.176459895687,548.2083515433251,1 44751U 19074AQ  25251.51264906  .00001295  00000+0  10578-3 0  9990,2 44751  53.0559 324.4522 0001467  88.9427 271.1730 15.06406249320731
STARLINK-1047,44752,53.0719,0.0004347,15.27720267,479.64674328541787,485.6114933486833,1 44752U 19074AR  25251.33714797  .00009296  00000+0  35097-3 0  9991,2 44752  53.0719 274.7994 0004347  24.6195 335.5010 15.27720267321424
STARLINK-1048,44753,53.0548,0.0001184,15.06405663,546.3742424989887,548.0141609275552,1 44753U 19074AS  25251.47211374  .00000821  00000+0  73988-4 0  9997,2 44753  53.0548 284.6286 0001184  85.2394 274.8730 15.06405663321284
STARLINK-1053,44758,53.0416,0.0003141,15.54205781,402.33189462852715,406.59272351448635,1 44758U 19074AX  25251.33030962  .00036850  00000+0  56037-3 0  9995,2 44758  53.0416 262.7793 0003141  40.5574 319.5669 15.54205781321596
STARLINK-1054,44759,53.0468,0.0010628,15.61151741,377.14187575515825,391.51617353714573,1 44759U 19074AY  25251.58337963  .00176221  00000+0  20053-2 0  9999,2 44759  53.0468 292.0308 0010628 325.1259  37.1594 15.61151741  5821
STARLINK-1056,44761,53.0439,0.0011824,15.72855224,342.78509925500657,358.69755071793406,1 44761U 19074BA  25251.58337963  .00092885  00000+0  66603-3 0  9997,2 44761  53.0439 282.5310 0011824 351.2271  84.6037 15.72855224  5965
STARLINK-1057,44762,53.0438,0.0004931,15.88314259,303.712375256252,310.30526606458625,1 44762U 19074BB  25251.58337963  .00156659  00000+0  54816-3 0  9991,2 44762  53.0438 254.9437 0004931 346.0228 229.9544 15.88314259  6045
STARLINK-1060,44765,53.0533,3.53e-05,15.1639254,516.5107736984473,516.9975530145794,1 44765U 19074BE  25251.58337963  .00121704  00000+0  61036-2 0  9998,2 44765  53.0533 303.8214 0000353 119.7821 193.0960 15.16392540  5849
STARLINK-1063,44768,53.0555,0.0001547,15.06396902,546.1496999875753,548.2924057691353,1 44768U 19074BH  25251.50160312  .00000065  00000+0  23235-4 0  9992,2 44768  53.0555 324.4946 0001547  94.9298 265.1868 15.06396902320747
STARLINK-1067,44771,53.0557,0.00013,15.0638834,546.3469944311692,548.1475943477108,1 44771U 19074BL  25251.49056336  .00019384  00000+0  13171-2 0  9994,2 44771  53.0557 324.5460 0001300  66.2220 293.8905 15.06388340320735
STARLINK-1068,44772,53.0541,0.0001274,15.06401847,546.3236084699802,548.0881858401754,1 44772U 19074BM  25251.41497715  .00007013  00000+0  48920-3 0  9994,2 44772  53.0541 304.8858 0001274  82.6699 277.4434 15.06401847320994
STARLINK-1098,44917,53.0402,0.0007102,16.14417421,230.0563094054296,239.4492580542401,1 44917U 20001D   25251.53715729  .00967980  60555-3  74436-3 0  9992,2 44917  53.0402  27.0240 0007102 341.1205  18.9567 16.14417421313196
STARLINK-1104,44922,53.0414,0.000636,16.17801338,221.32828431852067,229.7281464725047,1 44922U 20001J   25251.57361618  .01209843  11117-2  73532-3 0  9999,2 44922  53.0414  27.7905 0006360 333.0930  26.9777 16.17801338313188
STARLINK-1112,44925,53.0529,0.000547,15.44966278,427.7523004225177,435.20201831286613,1 44925U 20001M   25251.62092188  .00025246  00000+0  53458-3 0  9994,2 44925  53.0529  57.7190 0005470 121.2862 238.8680 15.44966278312774
STARLINK-1114,44927,53.0563,0.0001353,15.0639251,546.2975110388179,548.1715165704536,1 44927U 20001P   25251.25464912  .00000428  00000+0  47648-4 0  9993,2 44927  53.0563  85.6027 0001353  89.7255 270.3889 15.06392510312359
STARLINK-1123,44930,53.054,0.00013,15.06393833,546.3301611998841,548.130756739215,1 44930U 20001S   25250.87131652 -.00001415  00000+0 -76163-4 0  9999,2 44930  53.0540  87.3214 0001300  98.1299 261.9837 15.06393833312290
STARLINK-1144,44933,53.0487,0.0009227,15.47898445,416.59956361725017,429.1501508986348,1 44933U 20001V   25251.58337963  .00088681  00000+0  16620-2 0  9992,2 44933  53.0487  36.7279 0009227 241.9995 107.4211 15.47898445  5955
STARLINK-1071,44934,53.0383,0.0005903,16.10022666,242.87042421822207,250.6918025428795,1 44934U 20001W   25251.57613291  .00725851  29546-3  75075-3 0  9990,2 44934  53.0383   4.7610 0005903 349.9843  10.1072 16.10022666313506
STARLINK-1091,44940,53.0444,0.0003251,15.71144829,353.43479842281613,357.813089788674,1 44940U 20001AC  25251.58337963  .00101287  00000+0  78231-3 0  9995,2 44940  53.0444  24.5857 0003251 217.5977 319.8829 15.71144829  5639
STARLINK-1094,44941,53.0547,0.0001372,15.06399595,546.2626412127729,548.1629571976746,1 44941U 20001AD  25251.48134406  .00004839  00000+0  34353-3 0  9994,2 44941  53.0547  64.5836 0001372  84.9129 275.2016 15.06399595312669
STARLINK-1096,44942,52.9948,0.0003168,15.73446725,346.9236672112411,351.186015962071,1 44942U 20001AE  25251.20028490  .00093487  00000+0  65591-3 0  9995,2 44942  52.9948 213.3261 0003168  86.4604 273.6775 15.73446725315589
STARLINK-1122,44949,53.0552,0.0001187,15.06401218,546.385786515495,548.029863376938,1 44949U 20001AM  25251.50344501  .00000888  00000+0  78526-4 0  9995,2 44949  53.0552  64.4801 0001187  96.5329 263.5795 15.06401218312669
STARLINK-1066,44954,53.0442,0.0005053,15.99681194,271.9405628647928,278.66452886984644,1 44954U 20001AS  25251.58337963  .00425131  88165-4  82916-3 0  9995,2 44954  53.0442 350.8147 0005053 354.9910 224.2700 15.99681194  6071
STARLINK-1080,44961,53.0544,0.0001051,15.06397164,546.4923948364922,547.9481049304186,1 44961U 20001AZ  25251.56795718  .00004661  00000+0  33158-3 0  9999,2 44961  53.0544  44.1966 0001051  85.0726 275.0383 15.06397164312963
STARLINK-1090,44968,53.0555,0.0001437,15.06423278,546.1450528038085,548.1353774754398,1 44968U 20001BG  25251.57163685 -.00009054  00000+0 -58929-3 0  9995,2 44968  53.0555  44.1809 0001437  81.9136 278.2016 15.06423278312960
STARLINK-1107,44972,53.0155,0.0006769,15.53466014,402.0228073722519,411.20800517986754,1 44972U 20001BL  25251.56154622  .00078620  00000+0  12125-2 0  9990,2 44972  53.0155 339.0644 0006769   8.2267 351.8852 15.53466014313878
STARLINK-1115,44973,53.0191,0.0007975,16.16808675,222.96230415423906,233.49946092689152,1 44973U 20001BM  25250.56343549  .01301332  12995-2  85195-3 0  9995,2 44973  53.0191 294.5044 0007975   2.8588 357.2493 16.16808675314408
